[{"OBJECT_NAME":"KINEIS-5E","OBJECT_ID":"2024-219C","EPOCH":"2026-02-01T22:26:02.852736","MEAN_MOTION":14.72387197,"ECCENTRICITY":0.00016472,"INCLINATION":97.99,"RA_OF_ASC_NODE":195.2219,"ARG_OF_PERICENTER":84.9776,"MEAN_ANOMALY":275.1619,"EPHEMERIS_TYPE":0,"CLASSIFICATION_TYPE":"U","NORAD_CAT_ID":62083,"ELEMENT_SET_NO":999,"REV_AT_EPOCH":6386,"BSTAR":0.0001506989,"MEAN_MOTION_DOT":9.05e-6,"MEAN_MOTION_DDOT":0},{"OBJECT_NAME":"KINEIS-5A","OBJECT_ID":"2024-219D","EPOCH":"2026-02-01T21:35:08.120256","MEAN_MOTION":14.72427361,"ECCENTRICITY":0.00031026,"INCLINATION":97.9869,"RA_OF_ASC_NODE":195.2624,"ARG_OF_PERICENTER":40.8191,"MEAN_ANOMALY":319.3248,"EPHEMERIS_TYPE":0,"CLASSIFICATION_TYPE":"U","NORAD_CAT_ID":62084,"ELEMENT_SET_NO":999,"REV_AT_EPOCH":6386,"BSTAR":0.00014827104,"MEAN_MOTION_DOT":8.91e-6,"MEAN_MOTION_DDOT":0},{"OBJECT_NAME":"KINEIS-5B","OBJECT_ID":"2024-219E","EPOCH":"2026-02-02T00:00:33.541344","MEAN_MOTION":14.77914816,"ECCENTRICITY":0.00017922,"INCLINATION":97.9882,"RA_OF_ASC_NODE":197.7657,"ARG_OF_PERICENTER":19.6266,"MEAN_ANOMALY":340.5014,"EPHEMERIS_TYPE":0,"CLASSIFICATION_TYPE":"U","NORAD_CAT_ID":62085,"ELEMENT_SET_NO":999,"REV_AT_EPOCH":6403,"BSTAR":0.00026051406,"MEAN_MOTION_DOT":1.824e-5,"MEAN_MOTION_DDOT":0},{"OBJECT_NAME":"KINEIS-2C","OBJECT_ID":"2025-028B","EPOCH":"2026-02-01T16:59:00.715488","MEAN_MOTION":14.7227509,"ECCENTRICITY":0.00026094,"INCLINATION":98.027,"RA_OF_ASC_NODE":88.3279,"ARG_OF_PERICENTER":88.7749,"MEAN_ANOMALY":271.3757,"EPHEMERIS_TYPE":0,"CLASSIFICATION_TYPE":"U","NORAD_CAT_ID":62929,"ELEMENT_SET_NO":999,"REV_AT_EPOCH":5267,"BSTAR":0.00022442365,"MEAN_MOTION_DOT":1.368e-5,"MEAN_MOTION_DDOT":0},{"OBJECT_NAME":"KINEIS-2D","OBJECT_ID":"2025-028C","EPOCH":"2026-02-01T16:33:20.085120","MEAN_MOTION":14.75193459,"ECCENTRICITY":0.00018203,"INCLINATION":97.948,"RA_OF_ASC_NODE":87.6689,"ARG_OF_PERICENTER":281.6191,"MEAN_ANOMALY":78.4814,"EPHEMERIS_TYPE":0,"CLASSIFICATION_TYPE":"U","NORAD_CAT_ID":62930,"ELEMENT_SET_NO":999,"REV_AT_EPOCH":5273,"BSTAR":0.00026065682,"MEAN_MOTION_DOT":1.711e-5,"MEAN_MOTION_DDOT":0},{"OBJECT_NAME":"KINEIS-2E","OBJECT_ID":"2025-028D","EPOCH":"2026-02-01T22:03:33.816096","MEAN_MOTION":14.76590505,"ECCENTRICITY":9.017e-5,"INCLINATION":97.9148,"RA_OF_ASC_NODE":87.3493,"ARG_OF_PERICENTER":121.2726,"MEAN_ANOMALY":238.8573,"EPHEMERIS_TYPE":0,"CLASSIFICATION_TYPE":"U","NORAD_CAT_ID":62931,"ELEMENT_SET_NO":999,"REV_AT_EPOCH":5281,"BSTAR":0.00020096211,"MEAN_MOTION_DOT":1.353e-5,"MEAN_MOTION_DDOT":0},{"OBJECT_NAME":"KINEIS-2A","OBJECT_ID":"2025-028E","EPOCH":"2026-02-01T22:24:24.054336","MEAN_MOTION":14.71995303,"ECCENTRICITY":0.00043643,"INCLINATION":98.047,"RA_OF_ASC_NODE":88.7377,"ARG_OF_PERICENTER":281.8783,"MEAN_ANOMALY":78.1935,"EPHEMERIS_TYPE":0,"CLASSIFICATION_TYPE":"U","NORAD_CAT_ID":62932,"ELEMENT_SET_NO":999,"REV_AT_EPOCH":5270,"BSTAR":0.00023388121,"MEAN_MOTION_DOT":1.418e-5,"MEAN_MOTION_DDOT":0},{"OBJECT_NAME":"KINEIS-2B","OBJECT_ID":"2025-028G","EPOCH":"2026-02-01T16:58:01.011360","MEAN_MOTION":14.73000927,"ECCENTRICITY":0.00030026,"INCLINATION":97.9862,"RA_OF_ASC_NODE":87.9416,"ARG_OF_PERICENTER":205.602,"MEAN_ANOMALY":154.504,"EPHEMERIS_TYPE":0,"CLASSIFICATION_TYPE":"U","NORAD_CAT_ID":62934,"ELEMENT_SET_NO":999,"REV_AT_EPOCH":5271,"BSTAR":0.00020756959,"MEAN_MOTION_DOT":1.284e-5,"MEAN_MOTION_DDOT":0},{"OBJECT_NAME":"KINEIS-4E","OBJECT_ID":"2025-056A","EPOCH":"2026-02-01T22:31:45.848640","MEAN_MOTION":14.72399142,"ECCENTRICITY":0.00011943,"INCLINATION":97.9964,"RA_OF_ASC_NODE":159.8397,"ARG_OF_PERICENTER":43.8321,"MEAN_ANOMALY":316.2981,"EPHEMERIS_TYPE":0,"CLASSIFICATION_TYPE":"U","NORAD_CAT_ID":63300,"ELEMENT_SET_NO":999,"REV_AT_EPOCH":4722,"BSTAR":0.00037456165,"MEAN_MOTION_DOT":2.324e-5,"MEAN_MOTION_DDOT":0},{"OBJECT_NAME":"KINEIS-4C","OBJECT_ID":"2025-056B","EPOCH":"2026-02-01T22:49:52.379616","MEAN_MOTION":14.72395639,"ECCENTRICITY":0.00021672,"INCLINATION":98.0024,"RA_OF_ASC_NODE":159.9966,"ARG_OF_PERICENTER":76.7084,"MEAN_ANOMALY":283.4365,"EPHEMERIS_TYPE":0,"CLASSIFICATION_TYPE":"U","NORAD_CAT_ID":63301,"ELEMENT_SET_NO":999,"REV_AT_EPOCH":4723,"BSTAR":0.00038583062,"MEAN_MOTION_DOT":2.395e-5,"MEAN_MOTION_DDOT":0},{"OBJECT_NAME":"KINEIS-4D","OBJECT_ID":"2025-056C","EPOCH":"2026-02-01T22:54:54.584352","MEAN_MOTION":14.72040691,"ECCENTRICITY":0.00022358,"INCLINATION":98.0008,"RA_OF_ASC_NODE":159.9886,"ARG_OF_PERICENTER":62.9394,"MEAN_ANOMALY":297.2041,"EPHEMERIS_TYPE":0,"CLASSIFICATION_TYPE":"U","NORAD_CAT_ID":63302,"ELEMENT_SET_NO":999,"REV_AT_EPOCH":4723,"BSTAR":0.00038332859,"MEAN_MOTION_DOT":2.359e-5,"MEAN_MOTION_DDOT":0},{"OBJECT_NAME":"KINEIS-4A","OBJECT_ID":"2025-056D","EPOCH":"2026-02-01T22:07:12.635328","MEAN_MOTION":14.72262961,"ECCENTRICITY":0.00027898,"INCLINATION":97.9969,"RA_OF_ASC_NODE":159.8765,"ARG_OF_PERICENTER":30.8219,"MEAN_ANOMALY":329.3152,"EPHEMERIS_TYPE":0,"CLASSIFICATION_TYPE":"U","NORAD_CAT_ID":63303,"ELEMENT_SET_NO":999,"REV_AT_EPOCH":4722,"BSTAR":0.0003162119,"MEAN_MOTION_DOT":1.948e-5,"MEAN_MOTION_DDOT":0},{"OBJECT_NAME":"KINEIS-4B","OBJECT_ID":"2025-056E","EPOCH":"2026-02-01T15:11:45.341088","MEAN_MOTION":14.72409428,"ECCENTRICITY":0.00022794,"INCLINATION":98.0028,"RA_OF_ASC_NODE":159.6381,"ARG_OF_PERICENTER":5.5852,"MEAN_ANOMALY":354.538,"EPHEMERIS_TYPE":0,"CLASSIFICATION_TYPE":"U","NORAD_CAT_ID":63304,"ELEMENT_SET_NO":999,"REV_AT_EPOCH":4717,"BSTAR":0.00037869267,"MEAN_MOTION_DOT":2.35e-5,"MEAN_MOTION_DDOT":0}]
