KINEIS-5E               
1 62083U 24219C   26032.93475524  .00000905  00000+0  15070-3 0  9998
2 62083  97.9900 195.2219 0001647  84.9776 275.1619 14.72387197 63866
KINEIS-5A               
1 62084U 24219D   26032.89939954  .00000891  00000+0  14827-3 0  9999
2 62084  97.9869 195.2624 0003102  40.8191 319.3248 14.72427361 63868
KINEIS-5B               
1 62085U 24219E   26033.00038821  .00001824  00000+0  26051-3 0  9996
2 62085  97.9882 197.7657 0001792  19.6266 340.5014 14.77914816 64035
KINEIS-2C               
1 62929U 25028B   26032.70764717  .00001368  00000+0  22442-3 0  9991
2 62929  98.0270  88.3279 0002609  88.7749 271.3757 14.72275090 52672
KINEIS-2D               
1 62930U 25028C   26032.68981580  .00001711  00000+0  26066-3 0  9997
2 62930  97.9480  87.6689 0001820 281.6191  78.4814 14.75193459 52739
KINEIS-2E               
1 62931U 25028D   26032.91914139  .00001353  00000+0  20096-3 0  9999
2 62931  97.9148  87.3493 0000901 121.2726 238.8573 14.76590505 52810
KINEIS-2A               
1 62932U 25028E   26032.93361174  .00001418  00000+0  23388-3 0  9996
2 62932  98.0470  88.7377 0004364 281.8783  78.1935 14.71995303 52705
KINEIS-2B               
1 62934U 25028G   26032.70695615  .00001284  00000+0  20757-3 0  9991
2 62934  97.9862  87.9416 0003002 205.6020 154.5040 14.73000927 52719
KINEIS-4E               
1 63300U 25056A   26032.93872510  .00002324  00000+0  37456-3 0  9996
2 63300  97.9964 159.8397 0001194  43.8321 316.2981 14.72399142 47223
KINEIS-4C               
1 63301U 25056B   26032.95130069  .00002395  00000+0  38583-3 0  9995
2 63301  98.0024 159.9966 0002167  76.7084 283.4365 14.72395639 47237
KINEIS-4D               
1 63302U 25056C   26032.95479843  .00002359  00000+0  38333-3 0  9995
2 63302  98.0008 159.9886 0002235  62.9394 297.2041 14.72040691 47237
KINEIS-4A               
1 63303U 25056D   26032.92167402  .00001948  00000+0  31621-3 0  9994
2 63303  97.9969 159.8765 0002789  30.8219 329.3152 14.72262961 47226
KINEIS-4B               
1 63304U 25056E   26032.63316367  .00002350  00000+0  37869-3 0  9997
2 63304  98.0028 159.6381 0002279   5.5852 354.5380 14.72409428 47171
